     2.100          NAVIGATION                              RINEX VERSION / TYPE
fic2rin                                 09/07/2011 00:21:02 PGM / RUN BY / DATE
                                                            END OF HEADER
11 11  9  6 20  0  0.0 -.183564610779D-03 -.329691829393D-11  .000000000000D+00
     .180000000000D+02  .169687500000D+02  .662420449613D-08  .889397676743D+00
     .113062560558D-05  .122248076368D-01  .771321356297D-05  .515366507530D+04
     .244800000000D+06 -.100582838058D-06 -.300812282377D+01  .121071934700D-06
     .888340829613D+00  .193687500000D+03  .965367861092D+00 -.916216735533D-08
     .152149194768D-09  .100000000000D+01  .165200000000D+04  .000000000000D+00
     .240000000000D+01  .000000000000D+00 -.116415321827D-07  .180000000000D+02
     .237606000000D+06  .400000000000D+01
12 11  9  6 20  0  0.0  .206851400435D-04  .238742359215D-11  .000000000000D+00
     .560000000000D+02 -.758750000000D+02  .431339395589D-08  .511873801233D+00
    -.392645597458D-05  .357301160693D-02  .568665564060D-05  .515367621040D+04
     .244800000000D+06  .726431608200D-07  .145875066600D+01  .745058059692D-08
     .976194674952D+00  .282437500000D+03 -.722489552418D-01 -.806319300721D-08
     .142863093678D-11  .100000000000D+01  .165200000000D+04  .000000000000D+00
     .240000000000D+01  .000000000000D+00 -.121071934700D-07  .560000000000D+02
     .237606000000D+06  .400000000000D+01
13 11  9  6 20  0  0.0  .252792611718D-03 -.181898940355D-11  .000000000000D+00
     .310000000000D+02  .882812500000D+02  .355550524392D-08 -.310318074629D+01
     .461935997009D-05  .464044860564D-02  .945292413235D-05  .515378799629D+04
     .244800000000D+06  .167638063431D-07 -.569636779270D+00 -.260770320892D-07
     .988752322783D+00  .211718750000D+03  .194830845654D+01 -.753495671833D-08
    -.492877673191D-10  .100000000000D+01  .165200000000D+04  .000000000000D+00
     .240000000000D+01  .000000000000D+00 -.111758708954D-07  .310000000000D+02
     .237606000000D+06  .400000000000D+01
14 11  9  6 20  0  0.0  .170907936990D-03  .193267624127D-11  .000000000000D+00
     .350000000000D+02  .751875000000D+02  .366408119512D-08 -.306237644274D+01
     .394321978092D-05  .620058283675D-02  .871159136295D-05  .515371178055D+04
     .244800000000D+06  .167638063431D-07 -.594511935466D+00  .745058059692D-08
     .981712611768D+00  .221656250000D+03 -.209820686955D+01 -.755067165864D-08
     .142863093678D-11  .100000000000D+01  .165200000000D+04  .000000000000D+00
     .240000000000D+01  .000000000000D+00 -.884756445885D-08  .350000000000D+02
     .237606000000D+06  .400000000000D+01
15 11  9  6 20  0  0.0 -.107401981950D-03  .159161572810D-11  .000000000000D+00
     .530000000000D+02  .657500000000D+02  .451197365610D-08  .288973760894D+01
     .346638262272D-05  .361010734923D-02  .853464007378D-05  .515368038750D+04
     .244800000000D+06 -.242143869400D-07 -.673634061665D+00  .745058059692D-08
     .948719960143D+00  .208843750000D+03 -.770854794453D-01 -.805283543292D-08
    -.104647216119D-09  .100000000000D+01  .165200000000D+04  .000000000000D+00
     .240000000000D+01  .000000000000D+00 -.102445483208D-07  .530000000000D+02
     .237606000000D+06  .400000000000D+01
16 11  9  6 20  0  0.0 -.196222215891D-03 -.216004991671D-11  .000000000000D+00
     .860000000000D+02 -.964375000000D+02  .423767651624D-08 -.188711666624D+01
    -.522471964359D-05  .625147414394D-02  .641122460365D-05  .515388168335D+04
     .244800000000D+06 -.111758708954D-07  .147669776255D+01 -.119209289551D-06
     .977152170927D+00  .266187500000D+03 -.565399624307D-01 -.805604985253D-08
     .164292557730D-10  .100000000000D+01  .165200000000D+04  .000000000000D+00
     .240000000000D+01  .000000000000D+00 -.977888703346D-08  .860000000000D+02
     .237606000000D+06  .400000000000D+01
17 11  9  6 20  0  0.0  .176220200956D-03 -.159161572810D-11  .000000000000D+00
     .330000000000D+02 -.515937500000D+02  .448732977244D-08 -.277218724342D+01
    -.261887907982D-05  .657476682682D-02  .995583832264D-05  .515357648849D+04
     .244800000000D+06  .745058059692D-07  .251905179582D+01 -.182539224625D-06
     .961882084261D+00  .186687500000D+03 -.240325409686D+01 -.780389649218D-08
     .246438836595D-09  .100000000000D+01  .165200000000D+04  .000000000000D+00
     .240000000000D+01  .000000000000D+00 -.107102096081D-07  .330000000000D+02
     .237606000000D+06  .400000000000D+01
18 11  9  6 20  0  0.0  .156021211296D-03  .193267624127D-11  .000000000000D+00
     .920000000000D+02  .778125000000D+01  .522593196676D-08 -.130206648114D+01
     .370666384697D-06  .127715322888D-01  .744685530663D-05  .515362484550D+04
     .244800000000D+06  .365078449249D-06 -.168732735733D+01  .171363353729D-06
     .931700516038D+00  .221781250000D+03 -.221773307124D+01 -.831034615927D-08
    -.486448833975D-09  .100000000000D+01  .165200000000D+04  .000000000000D+00
     .240000000000D+01  .000000000000D+00 -.107102096081D-07  .920000000000D+02
     .237606000000D+06  .400000000000D+01
19 11  9  6 20  0  0.0 -.181025359780D-03 -.397903932026D-11  .000000000000D+00
     .120000000000D+02 -.408437500000D+02  .456376152756D-08  .282382570176D+01
    -.202842056751D-05  .758465775289D-02  .106003135443D-04  .515370077705D+04
     .244800000000D+06 -.150874257088D-06  .257278966887D+01  .316649675369D-07
     .959387122827D+00  .174218750000D+03  .913388278059D-01 -.779032449828D-08
     .353943314588D-09  .100000000000D+01  .165200000000D+04  .000000000000D+00
     .240000000000D+01  .000000000000D+00 -.144354999065D-07  .120000000000D+02
     .237606000000D+06  .400000000000D+01
20 11  9  6 20  0  0.0  .526192598045D-04  .454747350886D-12  .000000000000D+00
     .650000000000D+02  .334375000000D+01  .536950937590D-08 -.887138926840D+00
     .838190317154D-07  .451287545729D-02  .746920704842D-05  .515359477234D+04
     .244800000000D+06 -.353902578354D-07 -.174123137545D+01  .577419996262D-07
     .931958438735D+00  .218312500000D+03  .126779795722D+01 -.846642408912D-08
    -.528950604344D-09  .100000000000D+01  .165200000000D+04  .000000000000D+00
     .240000000000D+01  .000000000000D+00 -.745058059692D-08  .650000000000D+02
     .237606000000D+06  .400000000000D+01
21 11  9  6 20  0  0.0 -.169703736901D-03 -.250111042988D-11  .000000000000D+00
     .240000000000D+02  .147812500000D+02  .565344977459D-08 -.182673448259D+00
     .849366188049D-06  .180845416617D-01  .656396150589D-05  .515371287727D+04
     .244800000000D+06 -.316649675369D-07 -.274071999111D+01  .195577740669D-06
     .931871399499D+00  .236437500000D+03 -.233307483277D+01 -.885786896580D-08
     .221437795202D-10  .100000000000D+01  .165200000000D+04  .000000000000D+00
     .240000000000D+01  .000000000000D+00 -.116415321827D-07  .240000000000D+02
     .237606000000D+06  .400000000000D+01
22 11  9  6 20  0  0.0  .144794117659D-03 -.227373675443D-12  .000000000000D+00
     .570000000000D+02  .120937500000D+02  .522164607395D-08 -.214467159813D+01
     .560656189919D-06  .593800086062D-02  .770390033722D-05  .515369944000D+04
     .244800000000D+06  .109896063805D-06 -.168340228375D+01 -.577419996262D-07
     .929403257742D+00  .216250000000D+03 -.197188688800D+01 -.819998441941D-08
    -.440732643998D-09  .100000000000D+01  .165200000000D+04  .000000000000D+00
     .240000000000D+01  .000000000000D+00 -.167638063431D-07  .570000000000D+02
     .237606000000D+06  .400000000000D+01
23 11  9  6 20  0  0.0  .278093852103D-03 -.306954461848D-11  .000000000000D+00
     .650000000000D+02  .888750000000D+02  .417981696330D-08  .234658148579D+01
     .456720590591D-05  .757515092846D-02  .962428748608D-05  .515374049759D+04
     .244800000000D+06 -.931322574615D-07 -.641807247494D+00  .465661287308D-07
     .963313420865D+00  .196218750000D+03 -.306475906231D+01 -.787032783074D-08
    -.144648882349D-09  .100000000000D+01  .165200000000D+04  .000000000000D+00
     .240000000000D+01  .000000000000D+00 -.200234353542D-07  .650000000000D+02
     .237606000000D+06  .400000000000D+01
24 11  9  6 20  0  0.0  .421709381044D-03  .318323145621D-11  .000000000000D+00
     .810000000000D+02  .180625000000D+02  .519164482427D-08  .169977427543D+01
     .115111470222D-05  .663879746571D-02  .674463808537D-05  .515341645432D+04
     .244800000000D+06  .987201929092D-07 -.269429686060D+01  .856816768646D-07
     .948421501448D+00  .239468750000D+03 -.201518845269D+00 -.828320217148D-08
    -.125005206969D-10  .100000000000D+01  .165200000000D+04  .000000000000D+00
     .340000000000D+01  .000000000000D+00 -.139698386192D-08  .810000000000D+02
     .237606000000D+06  .400000000000D+01
25 11  9  6 20  0  0.0  .175046734512D-04  .181898940355D-11  .000000000000D+00
     .360000000000D+02 -.794062500000D+02  .457126183998D-08 -.106593467666D+01
    -.405125319958D-05  .102768372744D-02  .564940273762D-05  .515360255051D+04
     .244800000000D+06  .186264514923D-08  .142770315560D+01  .931322574615D-08
     .965008208534D+00  .274500000000D+03  .101146167704D+01 -.818141221723D-08
     .357157734196D-11  .100000000000D+01  .165200000000D+04  .000000000000D+00
     .240000000000D+01  .000000000000D+00  .558793544769D-08  .360000000000D+02
     .237606000000D+06  .400000000000D+01
28 11  9  6 20  0  0.0  .654356554151D-04  .295585778076D-11  .000000000000D+00
     .320000000000D+02 -.961250000000D+02  .415874465698D-08 -.208603325673D+01
    -.486709177494D-05  .171674325829D-01  .516325235367D-05  .515370652771D+04
     .244800000000D+06  .279396772385D-06  .148377716985D+01  .558793544769D-08
     .975464127311D+00  .280062500000D+03 -.188210345517D+01 -.776246619502D-08
     .839320675361D-10  .100000000000D+01  .165200000000D+04  .000000000000D+00
     .240000000000D+01  .000000000000D+00 -.102445483208D-07  .320000000000D+02
     .237606000000D+06  .400000000000D+01
